{
  "type": "FeatureCollection",
  "kind": "earthmesh_quality_worst_cells",
  "features": [
    {"type": "Feature", "geometry": {"type": "Polygon", "coordinates": [[[95.53749325432086,49.48539320260336],[97.21898287788163,47.92866882554132],[97.15042957909115,49.117210711071486],[95.53749325432086,49.48539320260336]]]}, "properties": {"cell_index": 5944, "metric": "angle_deviation_deg", "value": 52.11329133981867, "level": "warn"}},
    {"type": "Feature", "geometry": {"type": "Polygon", "coordinates": [[[98.33226438980321,50.08960135655127],[95.53749325432086,49.48539320260336],[97.15042957909115,49.117210711071486],[98.33226438980321,50.08960135655127]]]}, "properties": {"cell_index": 9677, "metric": "angle_deviation_deg", "value": 47.87027035654716, "level": "warn"}},
    {"type": "Feature", "geometry": {"type": "Polygon", "coordinates": [[[147.54080482251314,26.055982148372024],[145.58693171617972,28.065938085758457],[145.91873591610198,26.20148465998362],[147.54080482251314,26.055982148372024]]]}, "properties": {"cell_index": 9017, "metric": "angle_deviation_deg", "value": 44.26459984765384, "level": "warn"}},
    {"type": "Feature", "geometry": {"type": "Polygon", "coordinates": [[[111.61611424223517,30.55782607517092],[109.88618665580742,29.67674058336482],[111.17725410573306,29.540075521515767],[111.61611424223517,30.55782607517092]]]}, "properties": {"cell_index": 9422, "metric": "angle_deviation_deg", "value": 43.09472314888828, "level": "warn"}},
    {"type": "Feature", "geometry": {"type": "Polygon", "coordinates": [[[132.03594053124039,47.80152442460433],[131.65941055630407,46.83685630828169],[132.76329412484685,46.44159258506072],[132.03594053124039,47.80152442460433]]]}, "properties": {"cell_index": 9580, "metric": "angle_deviation_deg", "value": 42.455375973281896, "level": "warn"}},
    {"type": "Feature", "geometry": {"type": "Polygon", "coordinates": [[[105.38050837508534,53.63111802873692],[103.500170329028,54.80450639479221],[103.70346099569386,53.748603705621704],[105.38050837508534,53.63111802873692]]]}, "properties": {"cell_index": 9494, "metric": "angle_deviation_deg", "value": 42.399182613247376, "level": "warn"}},
    {"type": "Feature", "geometry": {"type": "Polygon", "coordinates": [[[140.3380237726249,36.85811584436278],[138.08236372312646,36.8029981443625],[139.0800999089547,36.105354171202336],[140.3380237726249,36.85811584436278]]]}, "properties": {"cell_index": 9679, "metric": "angle_deviation_deg", "value": 41.66802388881996, "level": "warn"}},
    {"type": "Feature", "geometry": {"type": "Polygon", "coordinates": [[[102.01570533010528,36.367149386340515],[102.14465579303597,38.16813707495287],[101.1449166882093,37.2619680815657],[102.01570533010528,36.367149386340515]]]}, "properties": {"cell_index": 9369, "metric": "angle_deviation_deg", "value": 41.00498509367487, "level": "warn"}},
    {"type": "Feature", "geometry": {"type": "Polygon", "coordinates": [[[121.34413683922422,38.04529754819757],[120.98500105896144,39.459230514239096],[120.45183459636722,38.53278975300136],[121.34413683922422,38.04529754819757]]]}, "properties": {"cell_index": 9768, "metric": "angle_deviation_deg", "value": 40.630238839120615, "level": "warn"}},
    {"type": "Feature", "geometry": {"type": "Polygon", "coordinates": [[[101.30037196386245,30.68996374414252],[102.87409789706882,29.797072979423135],[102.6024131414504,30.760029433465974],[101.30037196386245,30.68996374414252]]]}, "properties": {"cell_index": 9011, "metric": "angle_deviation_deg", "value": 40.50949405964645, "level": "warn"}},
    {"type": "Feature", "geometry": {"type": "Polygon", "coordinates": [[[131.3309945687356,24.237438781083767],[132.66234102736175,25.240488596951224],[131.3965816477552,25.119553157781443],[131.3309945687356,24.237438781083767]]]}, "properties": {"cell_index": 9864, "metric": "angle_deviation_deg", "value": 40.17168275980432, "level": "warn"}},
    {"type": "Feature", "geometry": {"type": "Polygon", "coordinates": [[[104.25217454966696,48.06677337756121],[102.96611110664975,47.41230283278482],[103.50887989993402,46.700722464853825],[104.25217454966696,48.06677337756121]]]}, "properties": {"cell_index": 9389, "metric": "angle_deviation_deg", "value": 39.92975276416447, "level": "warn"}},
    {"type": "Feature", "geometry": {"type": "Polygon", "coordinates": [[[140.05558327590666,28.056844366608363],[139.5718585167411,30.566722465196214],[138.59469732697784,29.18299183331163],[140.05558327590666,28.056844366608363]]]}, "properties": {"cell_index": 9425, "metric": "angle_deviation_deg", "value": 39.689971069531374, "level": "warn"}},
    {"type": "Feature", "geometry": {"type": "Polygon", "coordinates": [[[142.75734359837276,43.62371036172192],[143.92886736050008,44.89432113956371],[142.7744610050249,44.770421250133104],[142.75734359837276,43.62371036172192]]]}, "properties": {"cell_index": 8869, "metric": "angle_deviation_deg", "value": 39.62905125976644, "level": "warn"}},
    {"type": "Feature", "geometry": {"type": "Polygon", "coordinates": [[[110.89373020241605,26.046047031527344],[111.52165609598065,24.411199063292308],[111.99794278794909,25.402138342504344],[110.89373020241605,26.046047031527344]]]}, "properties": {"cell_index": 9219, "metric": "angle_deviation_deg", "value": 39.49455277926558, "level": "warn"}},
    {"type": "Feature", "geometry": {"type": "Polygon", "coordinates": [[[123.02132814774772,41.76013661805693],[120.98528476720483,42.63358972957901],[121.6790585365951,41.49657298536746],[123.02132814774772,41.76013661805693]]]}, "properties": {"cell_index": 9699, "metric": "angle_deviation_deg", "value": 38.970130837901465, "level": "warn"}},
    {"type": "Feature", "geometry": {"type": "Polygon", "coordinates": [[[137.2077470293981,28.145160797070986],[140.05558327590666,28.056844366608363],[138.59469732697784,29.18299183331163],[137.2077470293981,28.145160797070986]]]}, "properties": {"cell_index": 5414, "metric": "angle_deviation_deg", "value": 38.93269783507404, "level": "warn"}},
    {"type": "Feature", "geometry": {"type": "Polygon", "coordinates": [[[117.12010916558353,53.61494845622599],[118.2086426480181,52.248605984295274],[118.68059324870218,53.17876225080698],[117.12010916558353,53.61494845622599]]]}, "properties": {"cell_index": 9291, "metric": "angle_deviation_deg", "value": 38.46425677410475, "level": "warn"}},
    {"type": "Feature", "geometry": {"type": "Polygon", "coordinates": [[[119.61512184307831,37.820178752396025],[121.34413683922422,38.04529754819757],[120.45183459636722,38.53278975300136],[119.61512184307831,37.820178752396025]]]}, "properties": {"cell_index": 9306, "metric": "angle_deviation_deg", "value": 38.40129103628431, "level": "warn"}},
    {"type": "Feature", "geometry": {"type": "Polygon", "coordinates": [[[136.02779686006292,32.979543723624026],[134.57885997586868,33.905996718812816],[134.7775916838244,32.95795500279492],[136.02779686006292,32.979543723624026]]]}, "properties": {"cell_index": 5494, "metric": "angle_deviation_deg", "value": 38.346070688603525, "level": "warn"}},
    {"type": "Feature", "geometry": {"type": "Polygon", "coordinates": [[[129.95607428819477,23.130031599364642],[132.7277354569036,23.11632227684343],[131.3309945687356,24.237438781083767],[129.95607428819477,23.130031599364642]]]}, "properties": {"cell_index": 5409, "metric": "angle_deviation_deg", "value": 37.98753201184584, "level": "warn"}},
    {"type": "Feature", "geometry": {"type": "Polygon", "coordinates": [[[112.55448165326146,50.564431292439465],[110.51141031422284,51.813385522586366],[110.63397226591484,50.656243188406805],[112.55448165326146,50.564431292439465]]]}, "properties": {"cell_index": 9460, "metric": "angle_deviation_deg", "value": 37.30799215431814, "level": "warn"}},
    {"type": "Feature", "geometry": {"type": "Polygon", "coordinates": [[[109.88618665580742,29.67674058336482],[111.16595939683374,28.507725978195566],[111.17725410573306,29.540075521515767],[109.88618665580742,29.67674058336482]]]}, "properties": {"cell_index": 9423, "metric": "angle_deviation_deg", "value": 36.70615087637365, "level": "warn"}},
    {"type": "Feature", "geometry": {"type": "Polygon", "coordinates": [[[102.96611110664975,47.41230283278482],[101.50506235398464,47.02085309856854],[103.50887989993402,46.700722464853825],[102.96611110664975,47.41230283278482]]]}, "properties": {"cell_index": 9730, "metric": "angle_deviation_deg", "value": 36.665721535427124, "level": "warn"}},
    {"type": "Feature", "geometry": {"type": "Polygon", "coordinates": [[[112.89441711144329,48.66962877338169],[110.53962737869743,49.50871133464193],[111.10623156187128,48.42837085254506],[112.89441711144329,48.66962877338169]]]}, "properties": {"cell_index": 8946, "metric": "angle_deviation_deg", "value": 36.59234448060121, "level": "warn"}},
    {"type": "Feature", "geometry": {"type": "Polygon", "coordinates": [[[103.32538977397294,52.72233082354812],[105.38050837508534,53.63111802873692],[103.70346099569386,53.748603705621704],[103.32538977397294,52.72233082354812]]]}, "properties": {"cell_index": 9495, "metric": "angle_deviation_deg", "value": 36.51215062060534, "level": "warn"}},
    {"type": "Feature", "geometry": {"type": "Polygon", "coordinates": [[[123.04269581550605,51.662452036318854],[122.59799379524112,53.26163600947293],[121.6606745631081,52.2833151298373],[123.04269581550605,51.662452036318854]]]}, "properties": {"cell_index": 9800, "metric": "angle_deviation_deg", "value": 35.8267376681493, "level": "warn"}},
    {"type": "Feature", "geometry": {"type": "Polygon", "coordinates": [[[105.95103564848806,40.10882125261086],[104.25476648012648,39.12992536843298],[105.85587633005137,39.164775906359715],[105.95103564848806,40.10882125261086]]]}, "properties": {"cell_index": 5817, "metric": "angle_deviation_deg", "value": 35.50719544844859, "level": "warn"}}
  ]
}
